[{"OBJECT_NAME":"ONEWEB-0528","OBJECT_ID":"2022-166B","EPOCH":"2026-04-11T04:26:47.582880","MEAN_MOTION":13.21848956,"ECCENTRICITY":0.0001719,"INCLINATION":87.9191,"RA_OF_ASC_NODE":257.3464,"ARG_OF_PERICENTER":110.2433,"MEAN_ANOMALY":249.8886,"EPHEMERIS_TYPE":0,"CLASSIFICATION_TYPE":"U","NORAD_CAT_ID":54643,"ELEMENT_SET_NO":999,"REV_AT_EPOCH":16269,"BSTAR":-0.009007,"MEAN_MOTION_DOT":-3.707e-05,"MEAN_MOTION_DDOT":0.0},{"OBJECT_NAME":"ONEWEB-0539","OBJECT_ID":"2022-166C","EPOCH":"2026-04-11T03:33:34.341696","MEAN_MOTION":13.21815412,"ECCENTRICITY":0.0001843,"INCLINATION":87.9195,"RA_OF_ASC_NODE":257.3213,"ARG_OF_PERICENTER":105.0562,"MEAN_ANOMALY":255.0776,"EPHEMERIS_TYPE":0,"CLASSIFICATION_TYPE":"U","NORAD_CAT_ID":54644,"ELEMENT_SET_NO":999,"REV_AT_EPOCH":16268,"BSTAR":0.0044916,"MEAN_MOTION_DOT":1.868e-05,"MEAN_MOTION_DDOT":0.0},{"OBJECT_NAME":"ONEWEB-0540","OBJECT_ID":"2022-166D","EPOCH":"2026-04-11T03:43:27.734304","MEAN_MOTION":13.21815591,"ECCENTRICITY":0.0001806,"INCLINATION":87.9198,"RA_OF_ASC_NODE":257.3542,"ARG_OF_PERICENTER":102.005,"MEAN_ANOMALY":258.1286,"EPHEMERIS_TYPE":0,"CLASSIFICATION_TYPE":"U","NORAD_CAT_ID":54645,"ELEMENT_SET_NO":999,"REV_AT_EPOCH":16267,"BSTAR":0.0045499,"MEAN_MOTION_DOT":1.892e-05,"MEAN_MOTION_DDOT":0.0},{"OBJECT_NAME":"ONEWEB-0542","OBJECT_ID":"2022-166E","EPOCH":"2026-04-11T03:48:06.601536","MEAN_MOTION":13.21813474,"ECCENTRICITY":0.0002037,"INCLINATION":87.9195,"RA_OF_ASC_NODE":257.3165,"ARG_OF_PERICENTER":104.3724,"MEAN_ANOMALY":255.7636,"EPHEMERIS_TYPE":0,"CLASSIFICATION_TYPE":"U","NORAD_CAT_ID":54646,"ELEMENT_SET_NO":999,"REV_AT_EPOCH":16268,"BSTAR":0.004201,"MEAN_MOTION_DOT":1.748e-05,"MEAN_MOTION_DDOT":0.0},{"OBJECT_NAME":"ONEWEB-0545","OBJECT_ID":"2022-166F","EPOCH":"2026-04-11T04:46:11.341632","MEAN_MOTION":13.21824818,"ECCENTRICITY":0.0001797,"INCLINATION":87.9192,"RA_OF_ASC_NODE":257.3261,"ARG_OF_PERICENTER":115.4063,"MEAN_ANOMALY":244.7257,"EPHEMERIS_TYPE":0,"CLASSIFICATION_TYPE":"U","NORAD_CAT_ID":54647,"ELEMENT_SET_NO":999,"REV_AT_EPOCH":16265,"BSTAR":-0.00069111,"MEAN_MOTION_DOT":-2.72e-06,"MEAN_MOTION_DDOT":0.0},{"OBJECT_NAME":"ONEWEB-0580","OBJECT_ID":"2022-166G","EPOCH":"2026-04-11T04:09:54.948096","MEAN_MOTION":13.21803585,"ECCENTRICITY":0.0001592,"INCLINATION":87.9188,"RA_OF_ASC_NODE":257.3311,"ARG_OF_PERICENTER":106.9099,"MEAN_ANOMALY":253.221,"EPHEMERIS_TYPE":0,"CLASSIFICATION_TYPE":"U","NORAD_CAT_ID":54648,"ELEMENT_SET_NO":999,"REV_AT_EPOCH":16269,"BSTAR":0.010531,"MEAN_MOTION_DOT":4.363e-05,"MEAN_MOTION_DDOT":0.0},{"OBJECT_NAME":"ONEWEB-0582","OBJECT_ID":"2022-166H","EPOCH":"2026-04-11T03:21:26.070912","MEAN_MOTION":13.21825628,"ECCENTRICITY":0.0001795,"INCLINATION":87.919,"RA_OF_ASC_NODE":257.3304,"ARG_OF_PERICENTER":113.5117,"MEAN_ANOMALY":246.6206,"EPHEMERIS_TYPE":0,"CLASSIFICATION_TYPE":"U","NORAD_CAT_ID":54649,"ELEMENT_SET_NO":999,"REV_AT_EPOCH":16266,"BSTAR":6.0234e-05,"MEAN_MOTION_DOT":3.8e-07,"MEAN_MOTION_DDOT":0.0},{"OBJECT_NAME":"ONEWEB-0583","OBJECT_ID":"2022-166J","EPOCH":"2026-04-11T03:38:25.206432","MEAN_MOTION":13.21812131,"ECCENTRICITY":0.0001803,"INCLINATION":87.9189,"RA_OF_ASC_NODE":257.3513,"ARG_OF_PERICENTER":102.9963,"MEAN_ANOMALY":257.1372,"EPHEMERIS_TYPE":0,"CLASSIFICATION_TYPE":"U","NORAD_CAT_ID":54650,"ELEMENT_SET_NO":999,"REV_AT_EPOCH":16267,"BSTAR":0.006156700000000001,"MEAN_MOTION_DOT":2.556e-05,"MEAN_MOTION_DDOT":0.0},{"OBJECT_NAME":"ONEWEB-0584","OBJECT_ID":"2022-166K","EPOCH":"2026-04-11T04:07:30.256608","MEAN_MOTION":13.21796186,"ECCENTRICITY":0.0001704,"INCLINATION":87.9192,"RA_OF_ASC_NODE":257.3341,"ARG_OF_PERICENTER":102.2957,"MEAN_ANOMALY":257.8368,"EPHEMERIS_TYPE":0,"CLASSIFICATION_TYPE":"U","NORAD_CAT_ID":54651,"ELEMENT_SET_NO":999,"REV_AT_EPOCH":16266,"BSTAR":0.014434,"MEAN_MOTION_DOT":5.976e-05,"MEAN_MOTION_DDOT":0.0},{"OBJECT_NAME":"ONEWEB-0585","OBJECT_ID":"2022-166L","EPOCH":"2026-04-11T04:41:21.348672","MEAN_MOTION":13.2183299,"ECCENTRICITY":0.0001899,"INCLINATION":87.9191,"RA_OF_ASC_NODE":257.3144,"ARG_OF_PERICENTER":92.3745,"MEAN_ANOMALY":267.7607,"EPHEMERIS_TYPE":0,"CLASSIFICATION_TYPE":"U","NORAD_CAT_ID":54652,"ELEMENT_SET_NO":999,"REV_AT_EPOCH":16267,"BSTAR":-0.0035467,"MEAN_MOTION_DOT":-1.452e-05,"MEAN_MOTION_DDOT":0.0},{"OBJECT_NAME":"ONEWEB-0586","OBJECT_ID":"2022-166M","EPOCH":"2026-04-11T03:11:43.876608","MEAN_MOTION":13.21839686,"ECCENTRICITY":0.0001822,"INCLINATION":87.9192,"RA_OF_ASC_NODE":257.3526,"ARG_OF_PERICENTER":105.3994,"MEAN_ANOMALY":254.7341,"EPHEMERIS_TYPE":0,"CLASSIFICATION_TYPE":"U","NORAD_CAT_ID":54653,"ELEMENT_SET_NO":999,"REV_AT_EPOCH":16266,"BSTAR":-0.0053489,"MEAN_MOTION_DOT":-2.196e-05,"MEAN_MOTION_DDOT":0.0},{"OBJECT_NAME":"ONEWEB-0587","OBJECT_ID":"2022-166N","EPOCH":"2026-04-11T03:26:17.829024","MEAN_MOTION":13.21820481,"ECCENTRICITY":0.0001892,"INCLINATION":87.9201,"RA_OF_ASC_NODE":257.3177,"ARG_OF_PERICENTER":87.0822,"MEAN_ANOMALY":273.0528,"EPHEMERIS_TYPE":0,"CLASSIFICATION_TYPE":"U","NORAD_CAT_ID":54654,"ELEMENT_SET_NO":999,"REV_AT_EPOCH":16282,"BSTAR":0.00011386000000000001,"MEAN_MOTION_DOT":6e-07,"MEAN_MOTION_DDOT":0.0},{"OBJECT_NAME":"ONEWEB-0589","OBJECT_ID":"2022-166P","EPOCH":"2026-04-11T03:06:53.340192","MEAN_MOTION":13.21830463,"ECCENTRICITY":0.000178,"INCLINATION":87.918,"RA_OF_ASC_NODE":257.3415,"ARG_OF_PERICENTER":124.3272,"MEAN_ANOMALY":235.803,"EPHEMERIS_TYPE":0,"CLASSIFICATION_TYPE":"U","NORAD_CAT_ID":54655,"ELEMENT_SET_NO":999,"REV_AT_EPOCH":16268,"BSTAR":-0.0019651,"MEAN_MOTION_DOT":-7.99e-06,"MEAN_MOTION_DDOT":0.0},{"OBJECT_NAME":"ONEWEB-0590","OBJECT_ID":"2022-166Q","EPOCH":"2026-04-11T03:43:04.043424","MEAN_MOTION":13.21809697,"ECCENTRICITY":0.0001439,"INCLINATION":87.9199,"RA_OF_ASC_NODE":257.3191,"ARG_OF_PERICENTER":92.9982,"MEAN_ANOMALY":267.1317,"EPHEMERIS_TYPE":0,"CLASSIFICATION_TYPE":"U","NORAD_CAT_ID":54656,"ELEMENT_SET_NO":999,"REV_AT_EPOCH":16267,"BSTAR":0.006877299999999999,"MEAN_MOTION_DOT":2.854e-05,"MEAN_MOTION_DDOT":0.0},{"OBJECT_NAME":"ONEWEB-0591","OBJECT_ID":"2022-166R","EPOCH":"2026-04-11T04:00:13.496832","MEAN_MOTION":13.21811247,"ECCENTRICITY":0.0002051,"INCLINATION":87.9189,"RA_OF_ASC_NODE":257.3379,"ARG_OF_PERICENTER":93.0748,"MEAN_ANOMALY":267.0621,"EPHEMERIS_TYPE":0,"CLASSIFICATION_TYPE":"U","NORAD_CAT_ID":54657,"ELEMENT_SET_NO":999,"REV_AT_EPOCH":16270,"BSTAR":0.0055230999999999995,"MEAN_MOTION_DOT":2.294e-05,"MEAN_MOTION_DDOT":0.0},{"OBJECT_NAME":"ONEWEB-0592","OBJECT_ID":"2022-166S","EPOCH":"2026-04-11T04:05:03.594336","MEAN_MOTION":13.21805049,"ECCENTRICITY":0.0001767,"INCLINATION":87.9197,"RA_OF_ASC_NODE":257.3091,"ARG_OF_PERICENTER":97.9894,"MEAN_ANOMALY":262.144,"EPHEMERIS_TYPE":0,"CLASSIFICATION_TYPE":"U","NORAD_CAT_ID":54658,"ELEMENT_SET_NO":999,"REV_AT_EPOCH":16258,"BSTAR":0.009035600000000001,"MEAN_MOTION_DOT":3.745e-05,"MEAN_MOTION_DDOT":0.0},{"OBJECT_NAME":"ONEWEB-0593","OBJECT_ID":"2022-166T","EPOCH":"2026-04-11T04:36:30.274848","MEAN_MOTION":13.21820397,"ECCENTRICITY":0.0001847,"INCLINATION":87.9185,"RA_OF_ASC_NODE":257.3216,"ARG_OF_PERICENTER":114.358,"MEAN_ANOMALY":245.7747,"EPHEMERIS_TYPE":0,"CLASSIFICATION_TYPE":"U","NORAD_CAT_ID":54659,"ELEMENT_SET_NO":999,"REV_AT_EPOCH":16269,"BSTAR":0.0023509,"MEAN_MOTION_DOT":9.84e-06,"MEAN_MOTION_DDOT":0.0},{"OBJECT_NAME":"ONEWEB-0594","OBJECT_ID":"2022-166U","EPOCH":"2026-04-11T05:05:34.626912","MEAN_MOTION":13.21826087,"ECCENTRICITY":0.000181,"INCLINATION":87.9189,"RA_OF_ASC_NODE":257.3348,"ARG_OF_PERICENTER":95.4612,"MEAN_ANOMALY":264.6728,"EPHEMERIS_TYPE":0,"CLASSIFICATION_TYPE":"U","NORAD_CAT_ID":54660,"ELEMENT_SET_NO":999,"REV_AT_EPOCH":16271,"BSTAR":0.00016617000000000002,"MEAN_MOTION_DOT":8.2e-07,"MEAN_MOTION_DDOT":0.0},{"OBJECT_NAME":"ONEWEB-0595","OBJECT_ID":"2022-166V","EPOCH":"2026-04-11T04:31:41.531232","MEAN_MOTION":13.21732507,"ECCENTRICITY":0.0001982,"INCLINATION":87.9196,"RA_OF_ASC_NODE":257.3145,"ARG_OF_PERICENTER":105.9462,"MEAN_ANOMALY":254.1891,"EPHEMERIS_TYPE":0,"CLASSIFICATION_TYPE":"U","NORAD_CAT_ID":54661,"ELEMENT_SET_NO":999,"REV_AT_EPOCH":16268,"BSTAR":0.046533000000000005,"MEAN_MOTION_DOT":0.00019245,"MEAN_MOTION_DDOT":0.0},{"OBJECT_NAME":"ONEWEB-0596","OBJECT_ID":"2022-166W","EPOCH":"2026-04-11T03:55:22.588032","MEAN_MOTION":13.21814666,"ECCENTRICITY":0.000171,"INCLINATION":87.9193,"RA_OF_ASC_NODE":257.3353,"ARG_OF_PERICENTER":94.3035,"MEAN_ANOMALY":265.8294,"EPHEMERIS_TYPE":0,"CLASSIFICATION_TYPE":"U","NORAD_CAT_ID":54662,"ELEMENT_SET_NO":999,"REV_AT_EPOCH":16268,"BSTAR":0.004767,"MEAN_MOTION_DOT":1.982e-05,"MEAN_MOTION_DDOT":0.0},{"OBJECT_NAME":"ONEWEB-0597","OBJECT_ID":"2022-166X","EPOCH":"2026-04-10T22:01:43.322592","MEAN_MOTION":13.21811757,"ECCENTRICITY":0.0001775,"INCLINATION":87.9194,"RA_OF_ASC_NODE":257.3888,"ARG_OF_PERICENTER":103.4304,"MEAN_ANOMALY":256.7028,"EPHEMERIS_TYPE":0,"CLASSIFICATION_TYPE":"U","NORAD_CAT_ID":54663,"ELEMENT_SET_NO":999,"REV_AT_EPOCH":16265,"BSTAR":0.00062421,"MEAN_MOTION_DOT":2.71e-06,"MEAN_MOTION_DDOT":0.0},{"OBJECT_NAME":"ONEWEB-0600","OBJECT_ID":"2022-166Y","EPOCH":"2026-04-11T03:02:02.604192","MEAN_MOTION":13.21846035,"ECCENTRICITY":0.0002042,"INCLINATION":87.919,"RA_OF_ASC_NODE":257.3382,"ARG_OF_PERICENTER":100.4298,"MEAN_ANOMALY":259.7066,"EPHEMERIS_TYPE":0,"CLASSIFICATION_TYPE":"U","NORAD_CAT_ID":54664,"ELEMENT_SET_NO":999,"REV_AT_EPOCH":16265,"BSTAR":-0.0080345,"MEAN_MOTION_DOT":-3.305e-05,"MEAN_MOTION_DDOT":0.0},{"OBJECT_NAME":"ONEWEB-0601","OBJECT_ID":"2022-166Z","EPOCH":"2026-04-11T04:38:57.235200","MEAN_MOTION":13.21754057,"ECCENTRICITY":0.000199,"INCLINATION":87.919,"RA_OF_ASC_NODE":257.3414,"ARG_OF_PERICENTER":115.5112,"MEAN_ANOMALY":244.6228,"EPHEMERIS_TYPE":0,"CLASSIFICATION_TYPE":"U","NORAD_CAT_ID":54665,"ELEMENT_SET_NO":999,"REV_AT_EPOCH":16285,"BSTAR":0.036045,"MEAN_MOTION_DOT":0.00014908,"MEAN_MOTION_DDOT":0.0}]